{
  "type": "FeatureCollection",
  "features": [
    {
      "type": "Feature",
      "properties": {
        "norad_id": 67102,
        "name": "STARLINK-36255",
        "group": "last-30-days",
        "lat": -35.34080559962462,
        "lon": 132.1258667927452,
        "alt_km": 292.7978750153734,
        "timestamp": "2025-12-21T14:40:46.637747+00:00",
        "meta_object_name": "STARLINK-36255",
        "meta_object_id": "2025-299A",
        "meta_epoch": "2025-12-21T06:00:00.999648",
        "meta_mean_motion": 15.9495804,
        "meta_eccentricity": 0.00023449,
        "meta_inclination": 42.9993,
        "meta_ra_of_asc_node": 264.8309,
        "meta_arg_of_pericenter": 274.7455,
        "meta_mean_anomaly": 44.8326,
        "meta_ephemeris_type": 0,
        "meta_classification_type": "U",
        "meta_norad_cat_id": 67102,
        "meta_element_set_no": 999,
        "meta_rev_at_epoch": 217,
        "meta_bstar": -0.0033286556,
        "meta_mean_motion_dot": -0.01336953,
        "meta_mean_motion_ddot": 0.00052903139,
        "tle_line1": "1 67102U 25299A   25355.25001157 -.01336953  52903-3 -33287-2 0  9993",
        "tle_line2": "2 67102  42.9993 264.8309 0002344 274.7455  44.8326 15.94958040  2175"
      },
      "geometry": {
        "type": "Point",
        "coordinates": [
          132.1258667927452,
          -35.34080559962462
        ]
      }
    },
    {
      "type": "Feature",
      "properties": {
        "norad_id": 67103,
        "name": "STARLINK-36256",
        "group": "last-30-days",
        "lat": -35.8275854687944,
        "lon": 133.35645602770538,
        "alt_km": 292.6335194628291,
        "timestamp": "2025-12-21T14:40:46.637757+00:00",
        "meta_object_name": "STARLINK-36256",
        "meta_object_id": "2025-299B",
        "meta_epoch": "2025-12-21T06:00:00.999648",
        "meta_mean_motion": 15.95007806,
        "meta_eccentricity": 0.00023897,
        "meta_inclination": 42.9992,
        "meta_ra_of_asc_node": 264.8282,
        "meta_arg_of_pericenter": 274.3928,
        "meta_mean_anomaly": 46.2371,
        "meta_ephemeris_type": 0,
        "meta_classification_type": "U",
        "meta_norad_cat_id": 67103,
        "meta_element_set_no": 999,
        "meta_rev_at_epoch": 217,
        "meta_bstar": -0.0033228773,
        "meta_mean_motion_dot": -0.01338218,
        "meta_mean_motion_ddot": 0.0005302134,
        "tle_line1": "1 67103U 25299B   25355.25001157 -.01338218  53021-3 -33229-2 0  9998",
        "tle_line2": "2 67103  42.9992 264.8282 0002389 274.3928  46.2371 15.95007806  2177"
      },
      "geometry": {
        "type": "Point",
        "coordinates": [
          133.35645602770538,
          -35.8275854687944
        ]
      }
    },
    {
      "type": "Feature",
      "properties": {
        "norad_id": 67104,
        "name": "STARLINK-36258",
        "group": "last-30-days",
        "lat": -36.38958525244498,
        "lon": 134.83819625157167,
        "alt_km": 292.43635005805027,
        "timestamp": "2025-12-21T14:40:46.637767+00:00",
        "meta_object_name": "STARLINK-36258",
        "meta_object_id": "2025-299C",
        "meta_epoch": "2025-12-21T06:00:00.999648",
        "meta_mean_motion": 15.95077823,
        "meta_eccentricity": 0.00023983,
        "meta_inclination": 42.9993,
        "meta_ra_of_asc_node": 264.825,
        "meta_arg_of_pericenter": 274.3762,
        "meta_mean_anomaly": 47.4886,
        "meta_ephemeris_type": 0,
        "meta_classification_type": "U",
        "meta_norad_cat_id": 67104,
        "meta_element_set_no": 999,
        "meta_rev_at_epoch": 217,
        "meta_bstar": -0.0033106443,
        "meta_mean_motion_dot": -0.0133834,
        "meta_mean_motion_ddot": 0.00053067459,
        "tle_line1": "1 67104U 25299C   25355.25001157 -.01338340  53067-3 -33106-2 0  9999",
        "tle_line2": "2 67104  42.9993 264.8250 0002398 274.3762  47.4886 15.95077823  2170"
      },
      "geometry": {
        "type": "Point",
        "coordinates": [
          134.83819625157167,
          -36.38958525244498
        ]
      }
    },
    {
      "type": "Feature",
      "properties": {
        "norad_id": 67105,
        "name": "STARLINK-36261",
        "group": "last-30-days",
        "lat": -36.81150595141876,
        "lon": 135.9997324549628,
        "alt_km": 292.8117743241128,
        "timestamp": "2025-12-21T14:40:46.637777+00:00",
        "meta_object_name": "STARLINK-36261",
        "meta_object_id": "2025-299D",
        "meta_epoch": "2025-12-21T06:00:00.999648",
        "meta_mean_motion": 15.95141165,
        "meta_eccentricity": 0.00015198,
        "meta_inclination": 42.9991,
        "meta_ra_of_asc_node": 264.8227,
        "meta_arg_of_pericenter": 276.3527,
        "meta_mean_anomaly": 46.4585,
        "meta_ephemeris_type": 0,
        "meta_classification_type": "U",
        "meta_norad_cat_id": 67105,
        "meta_element_set_no": 999,
        "meta_rev_at_epoch": 217,
        "meta_bstar": -0.003343855,
        "meta_mean_motion_dot": -0.01355949,
        "meta_mean_motion_ddot": 0.0005438796,
        "tle_line1": "1 67105U 25299D   25355.25001157 -.01355949  54388-3 -33439-2 0  9990",
        "tle_line2": "2 67105  42.9991 264.8227 0001519 276.3527  46.4585 15.95141165  2174"
      },
      "geometry": {
        "type": "Point",
        "coordinates": [
          135.9997324549628,
          -36.81150595141876
        ]
      }
    },
    {
      "type": "Feature",
      "properties": {
        "norad_id": 67106,
        "name": "STARLINK-36259",
        "group": "last-30-days",
        "lat": -37.988702208443506,
        "lon": 139.4993621323028,
        "alt_km": 291.83662872713103,
        "timestamp": "2025-12-21T14:40:46.637787+00:00",
        "meta_object_name": "STARLINK-36259",
        "meta_object_id": "2025-299E",
        "meta_epoch": "2025-12-21T06:00:00.999648",
        "meta_mean_motion": 15.9529948,
        "meta_eccentricity": 0.00024244,
        "meta_inclination": 42.9992,
        "meta_ra_of_asc_node": 264.8155,
        "meta_arg_of_pericenter": 274.0277,
        "meta_mean_anomaly": 51.61,
        "meta_ephemeris_type": 0,
        "meta_classification_type": "U",
        "meta_norad_cat_id": 67106,
        "meta_element_set_no": 999,
        "meta_rev_at_epoch": 217,
        "meta_bstar": -0.0033166622,
        "meta_mean_motion_dot": -0.01356728,
        "meta_mean_motion_ddot": 0.00054531944,
        "tle_line1": "1 67106U 25299E   25355.25001157 -.01356728  54532-3 -33167-2 0  9996",
        "tle_line2": "2 67106  42.9992 264.8155 0002424 274.0277  51.6100 15.95299480  2174"
      },
      "geometry": {
        "type": "Point",
        "coordinates": [
          139.4993621323028,
          -37.988702208443506
        ]
      }
    },
    {
      "type": "Feature",
      "properties": {
        "norad_id": 67107,
        "name": "STARLINK-36196",
        "group": "last-30-days",
        "lat": -37.37243328156957,
        "lon": 137.61510407580295,
        "alt_km": 292.09325696749147,
        "timestamp": "2025-12-21T14:40:46.637800+00:00",
        "meta_object_name": "STARLINK-36196",
        "meta_object_id": "2025-299F",
        "meta_epoch": "2025-12-21T06:00:00.999648",
        "meta_mean_motion": 15.95204212,
        "meta_eccentricity": 0.00024127,
        "meta_inclination": 42.9992,
        "meta_ra_of_asc_node": 264.8193,
        "meta_arg_of_pericenter": 274.6657,
        "meta_mean_anomaly": 49.4719,
        "meta_ephemeris_type": 0,
        "meta_classification_type": "U",
        "meta_norad_cat_id": 67107,
        "meta_element_set_no": 999,
        "meta_rev_at_epoch": 217,
        "meta_bstar": -0.0032985536,
        "meta_mean_motion_dot": -0.01342545,
        "meta_mean_motion_ddot": 0.00053441013,
        "tle_line1": "1 67107U 25299F   25355.25001157 -.01342545  53441-3 -32986-2 0  9995",
        "tle_line2": "2 67107  42.9992 264.8193 0002412 274.6657  49.4719 15.95204212  2172"
      },
      "geometry": {
        "type": "Point",
        "coordinates": [
          137.61510407580295,
          -37.37243328156957
        ]
      }
    },
    {
      "type": "Feature",
      "properties": {
        "norad_id": 67108,
        "name": "STARLINK-36208",
        "group": "last-30-days",
        "lat": -38.56680297559928,
        "lon": 141.38921346504753,
        "alt_km": 291.61715848954645,
        "timestamp": "2025-12-21T14:40:46.637811+00:00",
        "meta_object_name": "STARLINK-36208",
        "meta_object_id": "2025-299G",
        "meta_epoch": "2025-12-21T06:00:00.999648",
        "meta_mean_motion": 15.95393878,
        "meta_eccentricity": 0.00023936,
        "meta_inclination": 42.9993,
        "meta_ra_of_asc_node": 264.8118,
        "meta_arg_of_pericenter": 273.618,
        "meta_mean_anomaly": 53.5007,
        "meta_ephemeris_type": 0,
        "meta_classification_type": "U",
        "meta_norad_cat_id": 67108,
        "meta_element_set_no": 999,
        "meta_rev_at_epoch": 217,
        "meta_bstar": -0.0033419281,
        "meta_mean_motion_dot": -0.01373857,
        "meta_mean_motion_ddot": 0.00055853082,
        "tle_line1": "1 67108U 25299G   25355.25001157 -.01373857  55853-3 -33419-2 0  9997",
        "tle_line2": "2 67108  42.9993 264.8118 0002393 273.6180  53.5007 15.95393878  2172"
      },
      "geometry": {
        "type": "Point",
        "coordinates": [
          141.38921346504753,
          -38.56680297559928
        ]
      }
    }
  ]
}